H1 CPF 01  gfz 2021 05 07 12  6272 tandemx   
H2 1003001  6202 36605    2021 05 07 12 59 42 2021 05 12 00 00 42   120 1 1  0 0 0
H9
10 0 59343   6462.000000  0   -2594716.711  -3660548.191   5216655.226
10 0 59343   6582.000000  0   -2353743.761  -2950601.196   5751907.282
10 0 59343   6702.000000  0   -2058828.872  -2193810.710   6185987.897
10 0 59343   6822.000000  0   -1714440.030  -1404312.773   6511300.261
10 0 59343   6942.000000  0   -1326153.970   -596715.890   6722159.436
10 0 59343   7062.000000  0    -900564.292    214172.029   6814884.019
10 0 59343   7182.000000  0    -445169.805   1013613.829   6787856.014
10 0 59343   7302.000000  0      31757.605   1787210.604   6641548.174
10 0 59343   7422.000000  0     521323.175   2521161.028   6378516.239
10 0 59343   7542.000000  0    1014174.612   3202507.467   6003356.530
10 0 59343   7662.000000  0    1500679.568   3819366.296   5522630.820
10 0 59343   7782.000000  0    1971112.914   4361139.233   4944757.537
10 0 59343   7902.000000  0    2415851.511   4818701.661   4279870.241
10 0 59343   8022.000000  0    2825571.482   5184562.438   3539643.613
10 0 59343   8142.000000  0    3191443.810   5452993.552   2737092.800
10 0 59343   8262.000000  0    3505326.537   5620129.499   1886343.796
10 0 59343   8382.000000  0    3759944.675   5684025.493   1002378.841
10 0 59343   8502.000000  0    3949053.953   5644678.406    100766.683
10 0 59343   8622.000000  0    4067586.398   5504007.388   -802620.582
10 0 59343   8742.000000  0    4111772.154   5265795.446  -1691894.920
10 0 59343   8862.000000  0    4079235.578   4935594.506  -2551439.607
10 0 59343   8982.000000  0    3969062.100   4520595.587  -3366189.931
10 0 59343   9102.000000  0    3781834.423   4029467.486  -4121900.658
10 0 59343   9222.000000  0    3519638.909   3472169.755  -4805393.747
10 0 59343   9342.000000  0    3186042.632   2859744.977  -5404784.356
10 0 59343   9462.000000  0    2786040.518   2204094.473  -5909679.960
10 0 59343   9582.000000  0    2325975.868   1517743.801  -6311350.399
10 0 59343   9702.000000  0    1813435.514    813602.471  -6602866.841
10 0 59343   9822.000000  0    1257123.612    104723.744  -6779209.273
10 0 59343   9942.000000  0     666714.593   -595932.784  -6837345.407
10 0 59343  10062.000000  0      52686.238  -1275733.464  -6776276.216
10 0 59343  10182.000000  0    -573861.422  -1922591.733  -6597049.821
10 0 59343  10302.000000  0   -1201401.307  -2525177.270  -6302746.753
10 0 59343  10422.000000  0   -1818186.556  -3073111.876  -5898432.946
10 0 59343  10542.000000  0   -2412465.145  -3557146.813  -5391081.273
10 0 59343  10662.000000  0   -2972700.718  -3969321.064  -4789463.783
10 0 59343  10782.000000  0   -3487796.811  -4303097.719  -4104011.556
10 0 59343  10902.000000  0   -3947317.928  -4553473.782  -3346643.534
10 0 59343  11022.000000  0   -4341703.951  -4717062.026  -2530567.386
10 0 59343  11142.000000  0   -4662473.117  -4792142.072  -1670053.530
10 0 59343  11262.000000  0   -4902408.082  -4778678.923   -780186.284
10 0 59343  11382.000000  0   -5055720.064  -4678308.010    123403.448
10 0 59343  11502.000000  0   -5118186.793  -4494286.796   1024819.120
10 0 59343  11622.000000  0   -5087259.534  -4231412.510   1908187.537
10 0 59343  11742.000000  0   -4962135.754  -3895907.851   2757947.888
10 0 59343  11862.000000  0   -4743796.263  -3495278.400   3559133.994
10 0 59343  11982.000000  0   -4435006.288  -3038145.845   4297644.385
10 0 59343  12102.000000  0   -4040279.475  -2534060.260   4960494.722
10 0 59343  12222.000000  0   -3565807.067  -1993297.590   5536045.340
10 0 59343  12342.000000  0   -3019355.894  -1426648.331   6014202.922
10 0 59343  12462.000000  0   -2410135.717   -845200.136   6386594.692
10 0 59343  12582.000000  0   -1748637.842   -260118.018   6646709.967
10 0 59343  12702.000000  0   -1046449.527    317570.614   6790006.377
10 0 59343  12822.000000  0    -316049.879    877181.975   6813983.607
10 0 59343  12942.000000  0     429411.730   1408572.827   6718224.573
10 0 59343  13062.000000  0    1176351.857   1902324.322   6504402.482
10 0 59343  13182.000000  0    1910999.961   2349909.127   6176252.660
10 0 59343  13302.000000  0    2619651.453   2743838.929   5739511.488
10 0 59343  13422.000000  0    3288924.628   3077791.909   5201822.885
10 0 59343  13542.000000  0    3906016.957   3346717.363   4572609.886
10 0 59343  13662.000000  0    4458952.658   3546914.357   3862914.164
10 0 59343  13782.000000  0    4936822.362   3676084.626   3085208.357
10 0 59343  13902.000000  0    5330006.344   3733357.128   2253175.219
10 0 59343  14022.000000  0    5630373.385   3719281.722   1381464.672
10 0 59343  14142.000000  0    5831453.471   3635794.717    485430.443
10 0 59343  14262.000000  0    5928578.241   3486154.973   -419148.712
10 0 59343  14382.000000  0    5918985.146   3274852.519  -1316355.666
10 0 59343  14502.000000  0    5801883.321   3007492.227  -2190423.478
10 0 59343  14622.000000  0    5578479.002   2690656.367  -3026018.996
10 0 59343  14742.000000  0    5251961.758   2331749.377  -3808516.066
10 0 59343  14862.000000  0    4827452.296   1938828.453  -4524253.363
10 0 59343  14982.000000  0    4311910.737   1520424.132  -5160770.888
10 0 59343  15102.000000  0    3714011.935   1085356.783  -5707019.046
10 0 59343  15222.000000  0    3043990.998    642553.271  -6153541.362
10 0 59343  15342.000000  0    2313460.930    200866.683  -6492627.212
10 0 59343  15462.000000  0    1535208.279   -231096.504  -6718432.883
10 0 59343  15582.000000  0     722970.655   -645139.838  -6827073.037
10 0 59343  15702.000000  0    -108803.777  -1033628.486  -6816680.382
10 0 59343  15822.000000  0    -945207.389  -1389625.616  -6687432.645
10 0 59343  15942.000000  0   -1771133.375  -1707012.903  -6441550.702
10 0 59343  16062.000000  0   -2571542.759  -1980594.014  -6083264.499
10 0 59343  16182.000000  0   -3331732.012  -2206178.552  -5618747.484
10 0 59343  16302.000000  0   -4037600.271  -2380647.036  -5056022.352
10 0 59343  16422.000000  0   -4675913.037  -2501994.927  -4404834.227
10 0 59343  16542.000000  0   -5234554.604  -2569354.144  -3676492.562
10 0 59343  16662.000000  0   -5702765.632  -2582991.864  -2883683.973
10 0 59343  16782.000000  0   -6071360.165  -2544285.611  -2040256.909
10 0 59343  16902.000000  0   -6332916.025  -2455675.273  -1160982.042
10 0 59343  17022.000000  0   -6481934.055  -2320592.528   -261291.927
10 0 59343  17142.000000  0   -6514960.893  -2143369.004    642994.835
10 0 59343  17262.000000  0   -6430672.331  -1929125.067   1535959.512
10 0 59343  17382.000000  0   -6229913.187  -1683642.176   2401873.237
10 0 59343  17502.000000  0   -5915692.267  -1413222.253   3225482.796
10 0 59343  17622.000000  0   -5493135.121  -1124537.318   3992286.908
10 0 59343  17742.000000  0   -4969392.267   -824473.179   4688797.779
10 0 59343  17862.000000  0   -4353508.048   -519971.979   5302778.374
10 0 59343  17982.000000  0   -3656256.458   -217877.421   5823455.921
10 0 59343  18102.000000  0   -2889943.766     75214.868   6241708.295
10 0 59343  18222.000000  0   -2068183.177    353097.686   6550218.303
10 0 59343  18342.000000  0   -1205647.418    610079.585   6743595.631
10 0 59343  18462.000000  0    -317803.790    841099.035   6818465.124
10 0 59343  18582.000000  0     579363.437   1041822.514   6773521.327
10 0 59343  18702.000000  0    1469639.767   1208725.305   6609549.807
10 0 59343  18822.000000  0    2336872.661   1339153.811   6329414.232
10 0 59343  18942.000000  0    3165264.039   1431367.734   5938009.827
10 0 59343  19062.000000  0    3939660.342   1484561.973   5442183.194
10 0 59343  19182.000000  0    4645832.640   1498867.706   4850617.571
10 0 59343  19302.000000  0    5270743.550   1475333.530   4173688.445
10 0 59343  19422.000000  0    5802798.521   1415886.060   3423286.145
10 0 59343  19542.000000  0    6232070.019   1323271.051   2612606.779
10 0 59343  19662.000000  0    6550491.786   1200974.763   1755919.952
10 0 59343  19782.000000  0    6752019.531   1053129.575    868313.198
10 0 59343  19902.000000  0    6832751.370    884404.694    -34580.487
10 0 59343  20022.000000  0    6791006.859    699884.982   -936866.550
10 0 59343  20142.000000  0    6627359.372    504940.899  -1822678.430
10 0 59343  20262.000000  0    6344623.087    305092.675  -2676463.810
10 0 59343  20382.000000  0    5947796.297    105872.926  -3483263.239
10 0 59343  20502.000000  0    5443961.983    -87308.934  -4228975.310
10 0 59343  20622.000000  0    4842147.704   -269297.030  -4900602.408
10 0 59343  20742.000000  0    4153150.732   -435310.674  -5486471.051
10 0 59343  20862.000000  0    3389334.713   -581055.257  -5976426.453
10 0 59343  20982.000000  0    2564400.072   -702820.747  -6361999.099
10 0 59343  21102.000000  0    1693133.319   -797564.429  -6636539.132
10 0 59343  21222.000000  0     791142.647   -862977.924  -6795319.781
10 0 59343  21342.000000  0    -125418.602   -897537.230  -6835610.855
10 0 59343  21462.000000  0   -1040135.496   -900534.194  -6756719.586
10 0 59343  21582.000000  0   -1936618.221   -872090.322  -6560001.751
10 0 59343  21702.000000  0   -2798789.497   -813151.762  -6248840.224
10 0 59343  21822.000000  0   -3611165.814   -725466.277  -5828592.295
10 0 59343  21942.000000  0   -4359132.547   -611542.359  -5306508.814
10 0 59343  22062.000000  0   -5029208.735   -474590.528  -4691620.039
10 0 59343  22182.000000  0   -5609294.446   -318448.411  -3994591.114
10 0 59343  22302.000000  0   -6088898.843   -147490.502  -3227547.998
10 0 59343  22422.000000  0   -6459341.574     33476.588  -2403873.448
10 0 59343  22542.000000  0   -6713923.239    219330.236  -1537978.037
10 0 59343  22662.000000  0   -6848060.461    404757.985   -645047.824
10 0 59343  22782.000000  0   -6859379.380    584389.136    259227.801
10 0 59343  22902.000000  0   -6747763.773    752929.612   1158938.177
99
